0 CZ-3 R/B
1 16528U 86010B   13282.38203738  .00000152  00000-0  90928-3 0  7062
2 16528 031.0552 057.3584 7165804 212.4206 075.7644 02.31279756181881
0 CZ-3 R/B
1 16528U 86010B   13283.23867623  .00000304  00000-0  14408-2 0  7085
2 16528 031.0333 057.0349 7166611 212.9074 068.9996 02.31279585181894
0 CZ-3 R/B
1 16528U 86010B   13287.15632433  .00000137  00000-0  82632-3 0  7088
2 16528 031.0607 055.7350 7166119 214.9619 090.8442 02.31281697181993
0 CZ-3 R/B
1 16528U 86010B   13289.79876851  .00000091  00000-0  98023-3 0  7095
2 16528 031.0635 054.8351 7166289 216.3688 130.9650 02.31282527182053
0 CZ-3 R/B
1 16528U 86010B   13290.57967280  .00000214  00000-0  10079-2 0  7114
2 16528 031.0365 054.5309 7166821 216.8217 061.1534 02.31282354182063
0 CZ-3 R/B
1 16528U 86010B   13292.13328075  .00000063  00000-0  10521-2 0  7104
2 16528 031.0658 054.0395 7166521 217.6124 274.7089 02.31283265182116
0 CZ-3 R/B
1 16528U 86010B   13294.82248672  .00000068  00000-0  95558-3 0  7116
2 16528 031.0680 053.1227 7166770 219.0467 353.7767 02.31284881182179
